NAVSTAR 77 (USA 289)    
1 43873U 18109A   24227.16630715 -.00000018  00000+0  00000+0 0  9998
2 43873  55.3169 118.7374 0029923 193.1727 338.8633  2.00558635 41599
